{
  "type": "FeatureCollection",
  "features": [
    {
      "type": "Feature",
      "properties": {
        "norad_id": 66899,
        "name": "STARLINK-36064",
        "group": "last-30-days",
        "lat": -51.708166134920745,
        "lon": -49.23893546703194,
        "alt_km": 360.1735433942713,
        "timestamp": "2025-12-22T23:36:19.412069+00:00",
        "meta_object_name": "STARLINK-36064",
        "meta_object_id": "2025-283X",
        "meta_epoch": "2025-12-22T20:00:01.999008",
        "meta_mean_motion": 15.72153559,
        "meta_eccentricity": 0.000131,
        "meta_inclination": 53.1589,
        "meta_ra_of_asc_node": 23.2433,
        "meta_arg_of_pericenter": 80.4235,
        "meta_mean_anomaly": 70.3805,
        "meta_ephemeris_type": 0,
        "meta_classification_type": "U",
        "meta_norad_cat_id": 66899,
        "meta_element_set_no": 999,
        "meta_rev_at_epoch": 399,
        "meta_bstar": -0.016725,
        "meta_mean_motion_dot": -0.01984351,
        "meta_mean_motion_ddot": 0,
        "tle_line1": "1 66899U 25283X   25356.83335647 -.01984351  00000+0 -16725-1 0  9992",
        "tle_line2": "2 66899  53.1589  23.2433 0001310  80.4235  70.3805 15.72153559  3992"
      },
      "geometry": {
        "type": "Point",
        "coordinates": [
          -49.23893546703194,
          -51.708166134920745
        ]
      }
    },
    {
      "type": "Feature",
      "properties": {
        "norad_id": 66900,
        "name": "STARLINK-36074",
        "group": "last-30-days",
        "lat": -51.19762206646383,
        "lon": -46.3213719201139,
        "alt_km": 359.8996826877383,
        "timestamp": "2025-12-22T23:36:19.412079+00:00",
        "meta_object_name": "STARLINK-36074",
        "meta_object_id": "2025-283Y",
        "meta_epoch": "2025-12-22T20:00:01.999008",
        "meta_mean_motion": 15.72146443,
        "meta_eccentricity": 0.0001133,
        "meta_inclination": 53.1589,
        "meta_ra_of_asc_node": 23.2393,
        "meta_arg_of_pericenter": 61.7541,
        "meta_mean_anomaly": 90.948,
        "meta_ephemeris_type": 0,
        "meta_classification_type": "U",
        "meta_norad_cat_id": 66900,
        "meta_element_set_no": 999,
        "meta_rev_at_epoch": 405,
        "meta_bstar": -0.016439,
        "meta_mean_motion_dot": -0.01953627,
        "meta_mean_motion_ddot": 0,
        "tle_line1": "1 66900U 25283Y   25356.83335647 -.01953627  00000+0 -16439-1 0  9999",
        "tle_line2": "2 66900  53.1589  23.2393 0001133  61.7541  90.9480 15.72146443  4054"
      },
      "geometry": {
        "type": "Point",
        "coordinates": [
          -46.3213719201139,
          -51.19762206646383
        ]
      }
    },
    {
      "type": "Feature",
      "properties": {
        "norad_id": 66901,
        "name": "STARLINK-36043",
        "group": "last-30-days",
        "lat": -50.60641592515212,
        "lon": -43.42925413721929,
        "alt_km": 359.9779272540072,
        "timestamp": "2025-12-22T23:36:19.412089+00:00",
        "meta_object_name": "STARLINK-36043",
        "meta_object_id": "2025-283Z",
        "meta_epoch": "2025-12-22T20:00:01.999008",
        "meta_mean_motion": 15.72136748,
        "meta_eccentricity": 0.0001115,
        "meta_inclination": 53.1588,
        "meta_ra_of_asc_node": 23.235,
        "meta_arg_of_pericenter": 75.8181,
        "meta_mean_anomaly": 78.8094,
        "meta_ephemeris_type": 0,
        "meta_classification_type": "U",
        "meta_norad_cat_id": 66901,
        "meta_element_set_no": 999,
        "meta_rev_at_epoch": 405,
        "meta_bstar": -0.016347,
        "meta_mean_motion_dot": -0.01943219,
        "meta_mean_motion_ddot": 0,
        "tle_line1": "1 66901U 25283Z   25356.83335647 -.01943219  00000+0 -16347-1 0  9994",
        "tle_line2": "2 66901  53.1588  23.2350 0001115  75.8181  78.8094 15.72136748  4056"
      },
      "geometry": {
        "type": "Point",
        "coordinates": [
          -43.42925413721929,
          -50.60641592515212
        ]
      }
    },
    {
      "type": "Feature",
      "properties": {
        "norad_id": 66902,
        "name": "STARLINK-35983",
        "group": "last-30-days",
        "lat": -49.94929624195858,
        "lon": -40.62931571379925,
        "alt_km": 360.11927072782146,
        "timestamp": "2025-12-22T23:36:19.412099+00:00",
        "meta_object_name": "STARLINK-35983",
        "meta_object_id": "2025-283AA",
        "meta_epoch": "2025-12-22T20:00:01.999008",
        "meta_mean_motion": 15.7214874,
        "meta_eccentricity": 0.0001403,
        "meta_inclination": 53.1587,
        "meta_ra_of_asc_node": 23.2308,
        "meta_arg_of_pericenter": 78.8294,
        "meta_mean_anomaly": 77.7063,
        "meta_ephemeris_type": 0,
        "meta_classification_type": "U",
        "meta_norad_cat_id": 66902,
        "meta_element_set_no": 999,
        "meta_rev_at_epoch": 405,
        "meta_bstar": -0.016465,
        "meta_mean_motion_dot": -0.0195676,
        "meta_mean_motion_ddot": 0,
        "tle_line1": "1 66902U 25283AA  25356.83335647 -.01956760  00000+0 -16465-1 0  9991",
        "tle_line2": "2 66902  53.1587  23.2308 0001403  78.8294  77.7063 15.72148740  4056"
      },
      "geometry": {
        "type": "Point",
        "coordinates": [
          -40.62931571379925,
          -49.94929624195858
        ]
      }
    },
    {
      "type": "Feature",
      "properties": {
        "norad_id": 66903,
        "name": "STARLINK-36077",
        "group": "last-30-days",
        "lat": -49.22490356228155,
        "lon": -37.90111549000105,
        "alt_km": 359.91913753404333,
        "timestamp": "2025-12-22T23:36:19.412109+00:00",
        "meta_object_name": "STARLINK-36077",
        "meta_object_id": "2025-283AB",
        "meta_epoch": "2025-12-22T20:00:01.999008",
        "meta_mean_motion": 15.72147537,
        "meta_eccentricity": 0.0001237,
        "meta_inclination": 53.1589,
        "meta_ra_of_asc_node": 23.2274,
        "meta_arg_of_pericenter": 70.1707,
        "meta_mean_anomaly": 88.2835,
        "meta_ephemeris_type": 0,
        "meta_classification_type": "U",
        "meta_norad_cat_id": 66903,
        "meta_element_set_no": 999,
        "meta_rev_at_epoch": 405,
        "meta_bstar": -0.016465,
        "meta_mean_motion_dot": -0.01956505,
        "meta_mean_motion_ddot": 0,
        "tle_line1": "1 66903U 25283AB  25356.83335647 -.01956505  00000+0 -16465-1 0  9999",
        "tle_line2": "2 66903  53.1589  23.2274 0001237  70.1707  88.2835 15.72147537  4057"
      },
      "geometry": {
        "type": "Point",
        "coordinates": [
          -37.90111549000105,
          -49.22490356228155
        ]
      }
    },
    {
      "type": "Feature",
      "properties": {
        "norad_id": 66904,
        "name": "STARLINK-36059",
        "group": "last-30-days",
        "lat": -48.43830865132123,
        "lon": -35.257889997806274,
        "alt_km": 359.7798972443861,
        "timestamp": "2025-12-22T23:36:19.412119+00:00",
        "meta_object_name": "STARLINK-36059",
        "meta_object_id": "2025-283AC",
        "meta_epoch": "2025-12-22T20:00:01.999008",
        "meta_mean_motion": 15.72140365,
        "meta_eccentricity": 0.0001135,
        "meta_inclination": 53.1589,
        "meta_ra_of_asc_node": 23.2229,
        "meta_arg_of_pericenter": 63.7098,
        "meta_mean_anomaly": 96.6634,
        "meta_ephemeris_type": 0,
        "meta_classification_type": "U",
        "meta_norad_cat_id": 66904,
        "meta_element_set_no": 999,
        "meta_rev_at_epoch": 405,
        "meta_bstar": -0.016379,
        "meta_mean_motion_dot": -0.0194688,
        "meta_mean_motion_ddot": 0,
        "tle_line1": "1 66904U 25283AC  25356.83335647 -.01946880  00000+0 -16379-1 0  9999",
        "tle_line2": "2 66904  53.1589  23.2229 0001135  63.7098  96.6634 15.72140365  4058"
      },
      "geometry": {
        "type": "Point",
        "coordinates": [
          -35.257889997806274,
          -48.43830865132123
        ]
      }
    },
    {
      "type": "Feature",
      "properties": {
        "norad_id": 66905,
        "name": "STARLINK-36075",
        "group": "last-30-days",
        "lat": -47.59198956179456,
        "lon": -32.69521779333491,
        "alt_km": 359.96772691330534,
        "timestamp": "2025-12-22T23:36:19.412128+00:00",
        "meta_object_name": "STARLINK-36075",
        "meta_object_id": "2025-283AD",
        "meta_epoch": "2025-12-22T20:00:01.999008",
        "meta_mean_motion": 15.72143125,
        "meta_eccentricity": 0.0001365,
        "meta_inclination": 53.1589,
        "meta_ra_of_asc_node": 23.219,
        "meta_arg_of_pericenter": 76.701,
        "meta_mean_anomaly": 85.5882,
        "meta_ephemeris_type": 0,
        "meta_classification_type": "U",
        "meta_norad_cat_id": 66905,
        "meta_element_set_no": 999,
        "meta_rev_at_epoch": 405,
        "meta_bstar": -0.016407,
        "meta_mean_motion_dot": -0.01950185,
        "meta_mean_motion_ddot": 0,
        "tle_line1": "1 66905U 25283AD  25356.83335647 -.01950185  00000+0 -16407-1 0  9995",
        "tle_line2": "2 66905  53.1589  23.2190 0001365  76.7010  85.5882 15.72143125  4058"
      },
      "geometry": {
        "type": "Point",
        "coordinates": [
          -32.69521779333491,
          -47.59198956179456
        ]
      }
    }
  ]
}